From: horizons@ssd.jpl.nasa.gov (Horizons Ephemeris System)
Subject: [Horizons] SMALL BODY #C(500@10)_T(79P/du Toit-Hartley) (1/1)
Date: March 1, 2021 at 1:22:53 PM PST

Automated mail xmit by MAIL_REQUEST, PID= 2301 Mon Mar  1 13:22:53 2021
++++++++++++++++++++++++++++++++ (part 1 of 1)  +++++++++++++++++++++++++++++++
*******************************************************************************
JPL/HORIZONS                 79P/du_Toit-Hartley           2021-Mar-01 13:22:53
Rec #:90000827 (+COV) Soln.date: 2013-Sep-13_11:15:48    # obs: 198 (2003-2013)

IAU76/J2000 helio. ecliptic osc. elements (au, days, deg., period=Julian yrs):

 EPOCH=  2456558.5 ! 2013-Sep-23.0000000 (TDB)    RMSW= n.a.
  EC= .6185134899509153   QR= 1.123805320881192   TP= 2456527.7858907687
  OM= 280.6403368540958   W= 281.689317338125     IN= 3.145618792107812
  A= 2.945858611714987    MA= 5.987205298897317   ADIST= 4.767911902548781
  PER= 5.0562211682523    N= .19493338            ANGMOM= .023199848
  DAN= 1.61634            DDN= 2.07948            L= 202.3468167
  B= -3.0803169           MOID= .13477901         TP= 2013-Aug-23.2858907687

Comet physical (GM= km^3/s^2; RAD= km):
  GM= n.a.                RAD= 1.4
  M1=  15.      M2=  n.a.     k1=  15.    k2= n.a.     PHCOF= n.a.

Comet non-gravitational force model (AMRAT=m^2/kg;A1-A3=au/d^2;DT=days;R0=au):
  AMRAT=  0.                                      DT=  0.
  A1= -4.871755372733E-11 A2= -3.296388080344E-11 A3= 0.
Standard model:
  ALN=  .1112620426   NK=  4.6142   NM=  2.15     NN=  5.093    R0=  2.808

COMET comments 
1: soln ref.= JPL#16, data arc: 2003-03-04 to 2013-04-04
2: k1=15.;
*******************************************************************************


*******************************************************************************
Ephemeris / MAIL_REQUEST Mon Mar  1 13:22:53 2021 Pasadena, USA  / Horizons
*******************************************************************************
Target body name: 79P/du_Toit-Hartley             {source: JPL#16}
Center body name: Sun (10)                        {source: DE431}
Center-site name: BODY CENTER
*******************************************************************************
Start time      : A.D. 1990-Jan-01 00:00:00.0000 TDB
Stop  time      : A.D. 2020-Dec-31 00:00:00.0000 TDB
Step-size       : 10080 minutes
*******************************************************************************
Center geodetic : 0.00000000,0.00000000,0.0000000 {E-lon(deg),Lat(deg),Alt(km)}
Center cylindric: 0.00000000,0.00000000,0.0000000 {E-lon(deg),Dxy(km),Dz(km)}
Center radii    : 696000.0 x 696000.0 x 696000.0 k{Equator, meridian, pole}    
Small perturbers: Yes                             {source: SB431-N16}
Output units    : AU-D
Output type     : GEOMETRIC cartesian states
Output format   : 6 (LT, range, and range-rate)
Reference frame : Ecliptic of J2000.0
*******************************************************************************
Initial IAU76/J2000 heliocentric ecliptic osculating elements (au, days, deg.):
 EPOCH=  2456558.5 ! 2013-Sep-23.0000000 (TDB)    RMSW= n.a.                  
  EC= .6185134899509153   QR= 1.123805320881192   TP= 2456527.7858907687      
  OM= 280.6403368540958   W= 281.689317338125     IN= 3.145618792107812       
 Equivalent ICRF heliocentric equatorial cartesian coordinates (au, au/d):
  X=-7.069899677066559E-01  Y=-8.571548234824128E-01  Z=-4.238045913120401E-01
 VX= 1.322789794735118E-02 VY=-1.389201417377077E-02 VZ=-5.408969694419502E-03
Comet physical (GM= km^3/s^2; RAD= km):                                        
  GM= n.a.                RAD= 1.4                                            
  M1=  15.      M2=  n.a.     k1=  15.    k2= n.a.     PHCOF= n.a.            
Comet non-gravitational force model (AMRAT=m^2/kg;A1-A3=au/d^2;DT=days;R0=au): 
  AMRAT=  0.                                      DT=  0.                     
  A1= -4.871755372733E-11 A2= -3.296388080344E-11 A3= 0.                      
Standard model:                                                               
  ALN=  .1112620426   NK=  4.6142   NM=  2.15     NN=  5.093    R0=  2.808    
*******************************************************************************
           JDTDB,            Calendar Date (TDB),                     LT,                     RG,                     RR,
**************************************************************************************************************************
$$SOE
2458056.500000000, A.D. 2017-Oct-30 00:00:00.0000,  1.834152970562858E-02,  3.175737423564729E+00, -5.709160428718622E-03,
2458063.500000000, A.D. 2017-Nov-06 00:00:00.0000,  1.810893338293388E-02,  3.135464618710374E+00, -5.797476590891353E-03,
2458070.500000000, A.D. 2017-Nov-13 00:00:00.0000,  1.787275198280724E-02,  3.094571076940960E+00, -5.886510124291408E-03,
2458077.500000000, A.D. 2017-Nov-20 00:00:00.0000,  1.763295699671892E-02,  3.053051862157575E+00, -5.976235479211721E-03,
2458084.500000000, A.D. 2017-Nov-27 00:00:00.0000,  1.738952109204345E-02,  3.010902241862818E+00, -6.066619855339508E-03,
2458091.500000000, A.D. 2017-Dec-04 00:00:00.0000,  1.714241842869434E-02,  2.968117741984410E+00, -6.157621972577946E-03,
2458098.500000000, A.D. 2017-Dec-11 00:00:00.0000,  1.689162503950444E-02,  2.924694212735997E+00, -6.249189980157625E-03,
2458105.500000000, A.D. 2017-Dec-18 00:00:00.0000,  1.663711932255393E-02,  2.880627913861107E+00, -6.341258228330802E-03,
2458112.500000000, A.D. 2017-Dec-25 00:00:00.0000,  1.637888263148661E-02,  2.835915616843244E+00, -6.433746306908661E-03,
2458119.500000000, A.D. 2018-Jan-01 00:00:00.0000,  1.611689986394752E-02,  2.790554706790707E+00, -6.526558942230399E-03,
2458126.500000000, A.D. 2018-Jan-08 00:00:00.0000,  1.585116013371804E-02,  2.744543298813172E+00, -6.619582013117332E-03,
2458133.500000000, A.D. 2018-Jan-15 00:00:00.0000,  1.558165762711577E-02,  2.697880386302736E+00, -6.712678012973539E-03,
2458140.500000000, A.D. 2018-Jan-22 00:00:00.0000,  1.530839263208556E-02,  2.650566019115502E+00, -6.805681873919077E-03,
2458147.500000000, A.D. 2018-Jan-29 00:00:00.0000,  1.503137274629067E-02,  2.602601512746086E+00, -6.898396177811306E-03,
2458154.500000000, A.D. 2018-Feb-05 00:00:00.0000,  1.475061429816728E-02,  2.553989694375572E+00, -6.990585378025923E-03,
2458161.500000000, A.D. 2018-Feb-12 00:00:00.0000,  1.446614402438486E-02,  2.504735193314774E+00, -7.081968866264421E-03,
2458168.500000000, A.D. 2018-Feb-19 00:00:00.0000,  1.417800105392589E-02,  2.454844784536991E+00, -7.172212703989698E-03,
2458175.500000000, A.D. 2018-Feb-26 00:00:00.0000,  1.388623925724264E-02,  2.404327795421893E+00, -7.260919782038419E-03,
2458182.500000000, A.D. 2018-Mar-05 00:00:00.0000,  1.359093003241820E-02,  2.353196588164352E+00, -7.347617905989407E-03,
2458189.500000000, A.D. 2018-Mar-12 00:00:00.0000,  1.329216563563256E-02,  2.301467136426759E+00, -7.431744524105340E-03,
2458196.500000000, A.D. 2018-Mar-19 00:00:00.0000,  1.299006320358580E-02,  2.249159721800029E+00, -7.512628212008535E-03,
2458203.500000000, A.D. 2018-Mar-26 00:00:00.0000,  1.268476953004054E-02,  2.196299760836266E+00, -7.589470030014215E-03,
2458210.500000000, A.D. 2018-Apr-02 00:00:00.0000,  1.237646666463762E-02,  2.142918774453661E+00, -7.661320203251727E-03,
2458217.500000000, A.D. 2018-Apr-09 00:00:00.0000,  1.206537861574363E-02,  2.089055548498566E+00, -7.727047207072613E-03,
2458224.500000000, A.D. 2018-Apr-16 00:00:00.0000,  1.175177941087669E-02,  2.034757529364945E+00, -7.785301653535766E-03,
2458231.500000000, A.D. 2018-Apr-23 00:00:00.0000,  1.143600273443006E-02,  1.980082492714501E+00, -7.834474075190074E-03,
2458238.500000000, A.D. 2018-Apr-30 00:00:00.0000,  1.111845342245811E-02,  1.925100533737159E+00, -7.872645071959642E-03,
2458245.500000000, A.D. 2018-May-07 00:00:00.0000,  1.079962114416659E-02,  1.869896436027684E+00, -7.897526865261861E-03,
2458252.500000000, A.D. 2018-May-14 00:00:00.0000,  1.048009662939882E-02,  1.814572481287802E+00, -7.906395753805820E-03,
2458259.500000000, A.D. 2018-May-21 00:00:00.0000,  1.016059080945136E-02,  1.759251763455718E+00, -7.896015646411840E-03,
2458266.500000000, A.D. 2018-May-28 00:00:00.0000,  9.841957208950012E-03,  1.704082065739241E+00, -7.862554070856327E-03,
2458273.500000000, A.D. 2018-Jun-04 00:00:00.0000,  9.525217834565652E-03,  1.649240343107993E+00, -7.801493884092206E-03,
2458280.500000000, A.D. 2018-Jun-11 00:00:00.0000,  9.211592629597283E-03,  1.594937822196361E+00, -7.707546507917662E-03,
2458287.500000000, A.D. 2018-Jun-18 00:00:00.0000,  8.902532196993827E-03,  1.541425667119094E+00, -7.574580354189193E-03,
2458294.500000000, A.D. 2018-Jun-25 00:00:00.0000,  8.599752717089470E-03,  1.489001025289757E+00, -7.395587929300220E-03,
2458301.500000000, A.D. 2018-Jul-02 00:00:00.0000,  8.305270979895059E-03,  1.438013093073958E+00, -7.162718479393208E-03,
2458308.500000000, A.D. 2018-Jul-09 00:00:00.0000,  8.021436067573915E-03,  1.388868601439988E+00, -6.867420193564450E-03,
2458315.500000000, A.D. 2018-Jul-16 00:00:00.0000,  7.750952064220554E-03,  1.342035748035113E+00, -6.500752826913737E-03,
2458322.500000000, A.D. 2018-Jul-23 00:00:00.0000,  7.496883539325501E-03,  1.298045146618072E+00, -6.053938749278549E-03,
2458329.500000000, A.D. 2018-Jul-30 00:00:00.0000,  7.262632844121409E-03,  1.257485896043274E+00, -5.519215048829771E-03,
2458336.500000000, A.D. 2018-Aug-06 00:00:00.0000,  7.051876296103887E-03,  1.220994530953090E+00, -4.891014813933615E-03,
2458343.500000000, A.D. 2018-Aug-13 00:00:00.0000,  6.868446642260179E-03,  1.189234670916758E+00, -4.167425130274838E-03,
2458350.500000000, A.D. 2018-Aug-20 00:00:00.0000,  6.716153831191754E-03,  1.162865988085388E+00, -3.351736840392552E-03,
2458357.500000000, A.D. 2018-Aug-27 00:00:00.0000,  6.598546836979422E-03,  1.142502968272572E+00, -2.453740776225557E-03,
